STARLINK-32088          
1 59693U 24086M   26067.99786842 -.00000600  00000+0 -12278-4 0  9997
2 59693  43.0040  56.2538 0001937 282.4203  77.6432 15.27571863104093
FLOCK 4G-24             
1 62637U 25009AE  26068.72509072  .00010513  00000+0  38996-3 0  9991
2 62637  97.4061 151.5140 0001802 280.2808  79.8228 15.27784978 63732
